IRIDIUM 39              
1 25042U 97069D   25174.34305155  .00000384  00000+0  95342-4 0  9990
2 25042  86.3925 208.4932 0015561 288.9498  71.0019 14.49225248450112
IRIDIUM 38              
1 25043U 97069E   25173.59608707  .00000248  00000+0  75177-4 0  9999
2 25043  86.3961 230.8797 0004242  87.4999 272.6685 14.38121339446996
IRIDIUM 42              
1 25077U 97077A   25174.44490937  .00000290  00000+0  92438-4 0  9990
2 25077  86.3962 236.6999 0003084  93.7024 266.4525 14.36356445442091
IRIDIUM 44              
1 25078U 97077B   25174.52142032  .00000269  00000+0  78745-4 0  9991
2 25078  86.3968 218.5788 0003155  55.3738 304.7758 14.40246193444648
IRIDIUM 45              
1 25104U 97082A   25174.36581145  .00009035  00000+0  32289-3 0  9993
2 25104  86.3586  44.8940 0114072 309.3797  49.7385 15.22587062453233
IRIDIUM 24              
1 25105U 97082B   25174.13947752  .00000329  00000+0  93820-4 0  9995
2 25105  86.3901  77.7770 0013460  62.8990 297.3581 14.42103648444320
IRIDIUM 51              
1 25262U 98018A   25174.39928965  .00019864  00000+0  43717-3 0  9995
2 25262  86.3837  52.7577 0083848 224.9457 134.4990 15.40073920448200
IRIDIUM 57              
1 25273U 98019B   25174.37412207  .00000239  00000+0  75777-4 0  9991
2 25273  86.3976 142.6704 0002365  86.7035 273.4432 14.35896713425888
